{"type": "FeatureCollection", "features": [ {"type": "Feature", "properties": {"norad_id": 34350, "name": "IRIDIUM 33 DEB", "group": "iridium-33-debris", "lat": -3.4885047992714187, "lon": 7.604970300378181, "alt_km": 759.6973162843196, "timestamp": "2025-12-01T03:58:49.183864+00:00", "meta": {"OBJECT_NAME": "IRIDIUM 33 DEB", "OBJECT_ID": "1997-051ES", "EPOCH": "2025-11-30T13:36:30.736224", "MEAN_MOTION": 14.45342454, "ECCENTRICITY": 0.0021548, "INCLINATION": 86.3285, "RA_OF_ASC_NODE": 8.0889, "ARG_OF_PERICENTER": 173.8797, "MEAN_ANOMALY": 308.9283, "EPHEMERIS_TYPE": 0, "CLASSIFICATION_TYPE": "U", "NORAD_CAT_ID": 34350, "ELEMENT_SET_NO": 999, "REV_AT_EPOCH": 88117, "BSTAR": 0.00032128, "MEAN_MOTION_DOT": 1.151e-05, "MEAN_MOTION_DDOT": 0, "GROUP": "iridium-33-debris"}, "tle": {"line1": "1 34350U 97051ES  25334.56702241  .00001151  00000+0  32128-3 0  9997", "line2": "2 34350  86.3285   8.0889 0021548 173.8797 308.9283 14.45342454881178"}}, "geometry": {"type": "Point", "coordinates": [7.604970300378181, -3.4885047992714187]}}, {"type": "Feature", "properties": {"norad_id": 34366, "name": "IRIDIUM 33 DEB", "group": "iridium-33-debris", "lat": -33.368377904717015, "lon": 51.94909400522452, "alt_km": 732.4017729496591, "timestamp": "2025-12-01T03:58:49.183876+00:00", "meta": {"OBJECT_NAME": "IRIDIUM 33 DEB", "OBJECT_ID": "1997-051FJ", "EPOCH": "2025-11-30T13:45:36.664992", "MEAN_MOTION": 14.5387253, "ECCENTRICITY": 0.0021471, "INCLINATION": 86.3705, "RA_OF_ASC_NODE": 54.6024, "ARG_OF_PERICENTER": 178.9668, "MEAN_ANOMALY": 288.4177, "EPHEMERIS_TYPE": 0, "CLASSIFICATION_TYPE": "U", "NORAD_CAT_ID": 34366, "ELEMENT_SET_NO": 999, "REV_AT_EPOCH": 88005, "BSTAR": 0.001303, "MEAN_MOTION_DOT": 5.513e-05, "MEAN_MOTION_DDOT": 0, "GROUP": "iridium-33-debris"}, "tle": {"line1": "1 34366U 97051FJ  25334.57334103  .00005513  00000+0  13030-2 0  9999", "line2": "2 34366  86.3705  54.6024 0021471 178.9668 288.4177 14.53872530880050"}}, "geometry": {"type": "Point", "coordinates": [51.94909400522452, -33.368377904717015]}}, {"type": "Feature", "properties": {"norad_id": 34375, "name": "IRIDIUM 33 DEB", "group": "iridium-33-debris", "lat": -59.71234157828486, "lon": -178.76975416953172, "alt_km": 892.9924752035085, "timestamp": "2025-12-01T03:58:49.183886+00:00", "meta": {"OBJECT_NAME": "IRIDIUM 33 DEB", "OBJECT_ID": "1997-051FT", "EPOCH": "2025-11-30T14:58:46.541856", "MEAN_MOTION": 14.17958547, "ECCENTRICITY": 0.0102206, "INCLINATION": 86.4333, "RA_OF_ASC_NODE": 187.5787, "ARG_OF_PERICENTER": 164.9296, "MEAN_ANOMALY": 250.9737, "EPHEMERIS_TYPE": 0, "CLASSIFICATION_TYPE": "U", "NORAD_CAT_ID": 34375, "ELEMENT_SET_NO": 999, "REV_AT_EPOCH": 86540, "BSTAR": 0.00040875, "MEAN_MOTION_DOT": 8.99e-06, "MEAN_MOTION_DDOT": 0, "GROUP": "iridium-33-debris"}, "tle": {"line1": "1 34375U 97051FT  25334.62414979  .00000899  00000+0  40875-3 0  9995", "line2": "2 34375  86.4333 187.5787 0102206 164.9296 250.9737 14.17958547865409"}}, "geometry": {"type": "Point", "coordinates": [-178.76975416953172, -59.71234157828486]}}, {"type": "Feature", "properties": {"norad_id": 34376, "name": "IRIDIUM 33 DEB", "group": "iridium-33-debris", "lat": -81.32451313395669, "lon": -143.1661712788829, "alt_km": 682.872259224333, "timestamp": "2025-12-01T03:58:49.183896+00:00", "meta": {"OBJECT_NAME": "IRIDIUM 33 DEB", "OBJECT_ID": "1997-051FU", "EPOCH": "2025-11-30T10:21:44.347392", "MEAN_MOTION": 14.62290401, "ECCENTRICITY": 0.00257785, "INCLINATION": 86.3002, "RA_OF_ASC_NODE": 12.0715, "ARG_OF_PERICENTER": 209.0434, "MEAN_ANOMALY": 150.9345, "EPHEMERIS_TYPE": 0, "CLASSIFICATION_TYPE": "U", "NORAD_CAT_ID": 34376, "ELEMENT_SET_NO": 999, "REV_AT_EPOCH": 87827, "BSTAR": 0.0015863642, "MEAN_MOTION_DOT": 8.064e-05, "MEAN_MOTION_DDOT": 0, "GROUP": "iridium-33-debris"}, "tle": {"line1": "1 34376U 97051FU  25334.43176328  .00008064  00000+0  15864-2 0  9999", "line2": "2 34376  86.3002  12.0715 0025778 209.0434 150.9345 14.62290401878279"}}, "geometry": {"type": "Point", "coordinates": [-143.1661712788829, -81.32451313395669]}}, {"type": "Feature", "properties": {"norad_id": 34486, "name": "IRIDIUM 33 DEB", "group": "iridium-33-debris", "lat": -7.856258561100228, "lon": -162.138355864261, "alt_km": 579.6368047560873, "timestamp": "2025-12-01T03:58:49.183906+00:00", "meta": {"OBJECT_NAME": "IRIDIUM 33 DEB", "OBJECT_ID": "1997-051GB", "EPOCH": "2025-11-30T14:52:20.960256", "MEAN_MOTION": 14.94942091, "ECCENTRICITY": 0.0012546, "INCLINATION": 86.3953, "RA_OF_ASC_NODE": 17.6148, "ARG_OF_PERICENTER": 152.2163, "MEAN_ANOMALY": 338.0627, "EPHEMERIS_TYPE": 0, "CLASSIFICATION_TYPE": "U", "NORAD_CAT_ID": 34486, "ELEMENT_SET_NO": 999, "REV_AT_EPOCH": 88805, "BSTAR": 0.0022093, "MEAN_MOTION_DOT": 0.00024229, "MEAN_MOTION_DDOT": 0, "GROUP": "iridium-33-debris"}, "tle": {"line1": "1 34486U 97051GB  25334.61968704  .00024229  00000+0  22093-2 0  9991", "line2": "2 34486  86.3953  17.6148 0012546 152.2163 338.0627 14.94942091888057"}}, "geometry": {"type": "Point", "coordinates": [-162.138355864261, -7.856258561100228]}}, {"type": "Feature", "properties": {"norad_id": 34487, "name": "IRIDIUM 33 DEB", "group": "iridium-33-debris", "lat": -34.29259717287298, "lon": -160.14149381921018, "alt_km": 739.4607966764115, "timestamp": "2025-12-01T03:58:49.183916+00:00", "meta": {"OBJECT_NAME": "IRIDIUM 33 DEB", "OBJECT_ID": "1997-051GC", "EPOCH": "2025-11-30T20:55:14.251872", "MEAN_MOTION": 14.4319069, "ECCENTRICITY": 0.0031622, "INCLINATION": 86.3446, "RA_OF_ASC_NODE": 17.4864, "ARG_OF_PERICENTER": 166.1942, "MEAN_ANOMALY": 320.4984, "EPHEMERIS_TYPE": 0, "CLASSIFICATION_TYPE": "U", "NORAD_CAT_ID": 34487, "ELEMENT_SET_NO": 999, "REV_AT_EPOCH": 88077, "BSTAR": 0.00020258, "MEAN_MOTION_DOT": 7.05e-06, "MEAN_MOTION_DDOT": 0, "GROUP": "iridium-33-debris"}, "tle": {"line1": "1 34487U 97051GC  25334.87169273  .00000705  00000+0  20258-3 0  9999", "line2": "2 34487  86.3446  17.4864 0031622 166.1942 320.4984 14.43190690880779"}}, "geometry": {"type": "Point", "coordinates": [-160.14149381921018, -34.29259717287298]}}, {"type": "Feature", "properties": {"norad_id": 34488, "name": "IRIDIUM 33 DEB", "group": "iridium-33-debris", "lat": -78.66122542388914, "lon": -67.16430177924677, "alt_km": 506.1779779072549, "timestamp": "2025-12-01T03:58:49.183926+00:00", "meta": {"OBJECT_NAME": "IRIDIUM 33 DEB", "OBJECT_ID": "1997-051GD", "EPOCH": "2025-11-30T15:43:55.739136", "MEAN_MOTION": 15.25331316, "ECCENTRICITY": 0.001601, "INCLINATION": 86.3255, "RA_OF_ASC_NODE": 311.7792, "ARG_OF_PERICENTER": 70.3709, "MEAN_ANOMALY": 289.9263, "EPHEMERIS_TYPE": 0, "CLASSIFICATION_TYPE": "U", "NORAD_CAT_ID": 34488, "ELEMENT_SET_NO": 999, "REV_AT_EPOCH": 89055, "BSTAR": 0.0042853, "MEAN_MOTION_DOT": 0.00109764, "MEAN_MOTION_DDOT": 0, "GROUP": "iridium-33-debris"}, "tle": {"line1": "1 34488U 97051GD  25334.65550624  .00109764  00000+0  42853-2 0  9999", "line2": "2 34488  86.3255 311.7792 0016010  70.3709 289.9263 15.25331316890558"}}, "geometry": {"type": "Point", "coordinates": [-67.16430177924677, -78.66122542388914]}}, {"type": "Feature", "properties": {"norad_id": 34492, "name": "IRIDIUM 33 DEB", "group": "iridium-33-debris", "lat": -36.75983750668932, "lon": -23.334451758384542, "alt_km": 720.5789007257927, "timestamp": "2025-12-01T03:58:49.183936+00:00", "meta": {"OBJECT_NAME": "IRIDIUM 33 DEB", "OBJECT_ID": "1997-051GH", "EPOCH": "2025-11-29T19:16:58.253664", "MEAN_MOTION": 14.25118071, "ECCENTRICITY": 0.01905111, "INCLINATION": 86.471, "RA_OF_ASC_NODE": 339.8576, "ARG_OF_PERICENTER": 280.0935, "MEAN_ANOMALY": 256.1765, "EPHEMERIS_TYPE": 0, "CLASSIFICATION_TYPE": "U", "NORAD_CAT_ID": 34492, "ELEMENT_SET_NO": 999, "REV_AT_EPOCH": 84874, "BSTAR": 0.0061920682, "MEAN_MOTION_DOT": 0.00017598, "MEAN_MOTION_DDOT": 0, "GROUP": "iridium-33-debris"}, "tle": {"line1": "1 34492U 97051GH  25333.80345201  .00017598  00000+0  61921-2 0  9993", "line2": "2 34492  86.4710 339.8576 0190511 280.0935 256.1765 14.25118071848748"}}, "geometry": {"type": "Point", "coordinates": [-23.334451758384542, -36.75983750668932]}}, {"type": "Feature", "properties": {"norad_id": 34497, "name": "IRIDIUM 33 DEB", "group": "iridium-33-debris", "lat": 60.30589634964126, "lon": -129.2088269296741, "alt_km": 806.5261901314261, "timestamp": "2025-12-01T03:58:49.183948+00:00", "meta": {"OBJECT_NAME": "IRIDIUM 33 DEB", "OBJECT_ID": "1997-051GN", "EPOCH": "2025-11-30T12:21:27.663264", "MEAN_MOTION": 14.27395454, "ECCENTRICITY": 0.00801576, "INCLINATION": 86.2785, "RA_OF_ASC_NODE": 57.6228, "ARG_OF_PERICENTER": 19.1901, "MEAN_ANOMALY": 356.4808, "EPHEMERIS_TYPE": 0, "CLASSIFICATION_TYPE": "U", "NORAD_CAT_ID": 34497, "ELEMENT_SET_NO": 999, "REV_AT_EPOCH": 86709, "BSTAR": 0.0006233514, "MEAN_MOTION_DOT": 1.599e-05, "MEAN_MOTION_DDOT": 0, "GROUP": "iridium-33-debris"}, "tle": {"line1": "1 34497U 97051GN  25334.51490351  .00001599  00000+0  62335-3 0  9999", "line2": "2 34497  86.2785  57.6228 0080157  19.1901 356.4808 14.27395454867095"}}, "geometry": {"type": "Point", "coordinates": [-129.2088269296741, 60.30589634964126]}}]}